[{"OBJECT_NAME":"QIANFAN-36","OBJECT_ID":"2024-185T","EPOCH":"2026-03-09T23:41:54.800448","MEAN_MOTION":13.5561466,"ECCENTRICITY":0.00073465,"INCLINATION":88.972,"RA_OF_ASC_NODE":71.9374,"ARG_OF_PERICENTER":135.4535,"MEAN_ANOMALY":224.7211,"EPHEMERIS_TYPE":0,"CLASSIFICATION_TYPE":"U","NORAD_CAT_ID":61569,"ELEMENT_SET_NO":999,"REV_AT_EPOCH":7974,"BSTAR":0.00015714599,"MEAN_MOTION_DOT":1.21e-6,"MEAN_MOTION_DDOT":0},{"OBJECT_NAME":"THORAD AGENA D DEB","OBJECT_ID":"1970-025BY","EPOCH":"2026-03-09T22:17:17.219328","MEAN_MOTION":13.55941624,"ECCENTRICITY":0.00054152,"INCLINATION":100.1868,"RA_OF_ASC_NODE":79.0118,"ARG_OF_PERICENTER":64.4818,"MEAN_ANOMALY":5.5857,"EPHEMERIS_TYPE":0,"CLASSIFICATION_TYPE":"U","NORAD_CAT_ID":4710,"ELEMENT_SET_NO":999,"REV_AT_EPOCH":76008,"BSTAR":0.00032647616,"MEAN_MOTION_DOT":1.8e-6,"MEAN_MOTION_DDOT":0}]
